[{"OBJECT_NAME":"ONEWEB-0384","OBJECT_ID":"2021-090AH","EPOCH":"2026-03-15T01:07:35.952096","MEAN_MOTION":13.2080797,"ECCENTRICITY":0.00011462,"INCLINATION":87.9168,"RA_OF_ASC_NODE":293.2759,"ARG_OF_PERICENTER":92.4459,"MEAN_ANOMALY":267.6805,"EPHEMERIS_TYPE":0,"CLASSIFICATION_TYPE":"U","NORAD_CAT_ID":49310,"ELEMENT_SET_NO":999,"REV_AT_EPOCH":21740,"BSTAR":-5.9519151e-5,"MEAN_MOTION_DOT":-1.1e-7,"MEAN_MOTION_DDOT":0},{"OBJECT_NAME":"ONEWEB-0385","OBJECT_ID":"2021-090AJ","EPOCH":"2026-03-15T01:08:56.297184","MEAN_MOTION":13.20771215,"ECCENTRICITY":0.00014689,"INCLINATION":87.9164,"RA_OF_ASC_NODE":293.2375,"ARG_OF_PERICENTER":86.6007,"MEAN_ANOMALY":273.5294,"EPHEMERIS_TYPE":0,"CLASSIFICATION_TYPE":"U","NORAD_CAT_ID":49311,"ELEMENT_SET_NO":999,"REV_AT_EPOCH":21737,"BSTAR":7.04492e-7,"MEAN_MOTION_DOT":1.3e-7,"MEAN_MOTION_DDOT":0},{"OBJECT_NAME":"ONEWEB-0386","OBJECT_ID":"2021-090AK","EPOCH":"2026-03-15T03:23:01.059072","MEAN_MOTION":13.20771138,"ECCENTRICITY":0.00013901,"INCLINATION":87.9166,"RA_OF_ASC_NODE":293.2037,"ARG_OF_PERICENTER":88.7745,"MEAN_ANOMALY":271.3548,"EPHEMERIS_TYPE":0,"CLASSIFICATION_TYPE":"U","NORAD_CAT_ID":49312,"ELEMENT_SET_NO":999,"REV_AT_EPOCH":21740,"BSTAR":0.00011974745,"MEAN_MOTION_DOT":6.2e-7,"MEAN_MOTION_DDOT":0},{"OBJECT_NAME":"ONEWEB-0387","OBJECT_ID":"2021-090AL","EPOCH":"2026-03-15T03:00:16.847136","MEAN_MOTION":13.2077038,"ECCENTRICITY":0.00015617,"INCLINATION":87.9154,"RA_OF_ASC_NODE":293.2435,"ARG_OF_PERICENTER":75.921,"MEAN_ANOMALY":284.2097,"EPHEMERIS_TYPE":0,"CLASSIFICATION_TYPE":"U","NORAD_CAT_ID":49313,"ELEMENT_SET_NO":999,"REV_AT_EPOCH":21740,"BSTAR":-7.3069181e-5,"MEAN_MOTION_DOT":-1.7e-7,"MEAN_MOTION_DDOT":0},{"OBJECT_NAME":"ONEWEB-0388","OBJECT_ID":"2021-090AM","EPOCH":"2026-03-15T05:50:27.487680","MEAN_MOTION":13.19724853,"ECCENTRICITY":0.00015681,"INCLINATION":87.9222,"RA_OF_ASC_NODE":323.6921,"ARG_OF_PERICENTER":80.5751,"MEAN_ANOMALY":279.5559,"EPHEMERIS_TYPE":0,"CLASSIFICATION_TYPE":"U","NORAD_CAT_ID":49314,"ELEMENT_SET_NO":999,"REV_AT_EPOCH":21402,"BSTAR":0.00018901424,"MEAN_MOTION_DOT":8.9e-7,"MEAN_MOTION_DDOT":0},{"OBJECT_NAME":"ONEWEB-0389","OBJECT_ID":"2021-132A","EPOCH":"2026-03-15T06:22:35.029344","MEAN_MOTION":13.17650641,"ECCENTRICITY":0.00016045,"INCLINATION":87.9156,"RA_OF_ASC_NODE":24.5185,"ARG_OF_PERICENTER":69.3927,"MEAN_ANOMALY":290.7376,"EPHEMERIS_TYPE":0,"CLASSIFICATION_TYPE":"U","NORAD_CAT_ID":50469,"ELEMENT_SET_NO":999,"REV_AT_EPOCH":20571,"BSTAR":5.7684309e-5,"MEAN_MOTION_DOT":3.5e-7,"MEAN_MOTION_DDOT":0},{"OBJECT_NAME":"ONEWEB-0390","OBJECT_ID":"2021-132B","EPOCH":"2026-03-15T06:25:00.035328","MEAN_MOTION":13.17648039,"ECCENTRICITY":0.00020958,"INCLINATION":87.916,"RA_OF_ASC_NODE":24.5188,"ARG_OF_PERICENTER":76.1896,"MEAN_ANOMALY":283.9469,"EPHEMERIS_TYPE":0,"CLASSIFICATION_TYPE":"U","NORAD_CAT_ID":50470,"ELEMENT_SET_NO":999,"REV_AT_EPOCH":20571,"BSTAR":4.42393e-7,"MEAN_MOTION_DOT":1.3e-7,"MEAN_MOTION_DDOT":0},{"OBJECT_NAME":"ONEWEB-0391","OBJECT_ID":"2021-132C","EPOCH":"2026-03-15T02:48:44.973216","MEAN_MOTION":13.17650287,"ECCENTRICITY":0.00018142,"INCLINATION":87.9159,"RA_OF_ASC_NODE":24.5573,"ARG_OF_PERICENTER":53.8962,"MEAN_ANOMALY":306.2338,"EPHEMERIS_TYPE":0,"CLASSIFICATION_TYPE":"U","NORAD_CAT_ID":50471,"ELEMENT_SET_NO":999,"REV_AT_EPOCH":20569,"BSTAR":-0.00021985564,"MEAN_MOTION_DOT":-7.2e-7,"MEAN_MOTION_DDOT":0},{"OBJECT_NAME":"ONEWEB-0392","OBJECT_ID":"2021-132D","EPOCH":"2026-03-15T05:21:50.266080","MEAN_MOTION":13.17649387,"ECCENTRICITY":0.00016582,"INCLINATION":87.9169,"RA_OF_ASC_NODE":24.4978,"ARG_OF_PERICENTER":68.6934,"MEAN_ANOMALY":291.4375,"EPHEMERIS_TYPE":0,"CLASSIFICATION_TYPE":"U","NORAD_CAT_ID":50472,"ELEMENT_SET_NO":999,"REV_AT_EPOCH":20574,"BSTAR":-1.5565205e-5,"MEAN_MOTION_DOT":7.0e-8,"MEAN_MOTION_DDOT":0},{"OBJECT_NAME":"ONEWEB-0393","OBJECT_ID":"2021-132E","EPOCH":"2026-03-15T06:32:29.609088","MEAN_MOTION":13.1764879,"ECCENTRICITY":0.00017814,"INCLINATION":87.9169,"RA_OF_ASC_NODE":24.5109,"ARG_OF_PERICENTER":74.5394,"MEAN_ANOMALY":285.5934,"EPHEMERIS_TYPE":0,"CLASSIFICATION_TYPE":"U","NORAD_CAT_ID":50473,"ELEMENT_SET_NO":999,"REV_AT_EPOCH":20574,"BSTAR":0.0001092402,"MEAN_MOTION_DOT":5.5e-7,"MEAN_MOTION_DDOT":0},{"OBJECT_NAME":"ONEWEB-0394","OBJECT_ID":"2021-132F","EPOCH":"2026-03-15T05:43:37.207776","MEAN_MOTION":13.18687218,"ECCENTRICITY":0.00016549,"INCLINATION":87.9253,"RA_OF_ASC_NODE":354.1022,"ARG_OF_PERICENTER":75.5349,"MEAN_ANOMALY":284.5966,"EPHEMERIS_TYPE":0,"CLASSIFICATION_TYPE":"U","NORAD_CAT_ID":50474,"ELEMENT_SET_NO":999,"REV_AT_EPOCH":20921,"BSTAR":3.2549931e-5,"MEAN_MOTION_DOT":2.6e-7,"MEAN_MOTION_DDOT":0},{"OBJECT_NAME":"ONEWEB-0395","OBJECT_ID":"2021-132G","EPOCH":"2026-03-15T04:03:58.699296","MEAN_MOTION":13.11418,"ECCENTRICITY":0.00018903,"INCLINATION":87.8867,"RA_OF_ASC_NODE":39.7629,"ARG_OF_PERICENTER":75.2658,"MEAN_ANOMALY":284.8679,"EPHEMERIS_TYPE":0,"CLASSIFICATION_TYPE":"U","NORAD_CAT_ID":50475,"ELEMENT_SET_NO":999,"REV_AT_EPOCH":20339,"BSTAR":-0.00089279788,"MEAN_MOTION_DOT":-3.04e-6,"MEAN_MOTION_DDOT":0},{"OBJECT_NAME":"ONEWEB-0396","OBJECT_ID":"2021-132H","EPOCH":"2026-03-15T05:34:07.182912","MEAN_MOTION":13.18687006,"ECCENTRICITY":0.00017193,"INCLINATION":87.9254,"RA_OF_ASC_NODE":354.1151,"ARG_OF_PERICENTER":78.4517,"MEAN_ANOMALY":281.6808,"EPHEMERIS_TYPE":0,"CLASSIFICATION_TYPE":"U","NORAD_CAT_ID":50476,"ELEMENT_SET_NO":999,"REV_AT_EPOCH":20925,"BSTAR":8.2652883e-5,"MEAN_MOTION_DOT":4.5e-7,"MEAN_MOTION_DDOT":0},{"OBJECT_NAME":"ONEWEB-0397","OBJECT_ID":"2021-132J","EPOCH":"2026-03-15T05:55:29.893728","MEAN_MOTION":13.18687067,"ECCENTRICITY":0.00015807,"INCLINATION":87.9255,"RA_OF_ASC_NODE":354.1126,"ARG_OF_PERICENTER":79.4365,"MEAN_ANOMALY":280.6945,"EPHEMERIS_TYPE":0,"CLASSIFICATION_TYPE":"U","NORAD_CAT_ID":50477,"ELEMENT_SET_NO":999,"REV_AT_EPOCH":20923,"BSTAR":0.00014637317,"MEAN_MOTION_DOT":7.1e-7,"MEAN_MOTION_DDOT":0},{"OBJECT_NAME":"ONEWEB-0398","OBJECT_ID":"2021-132K","EPOCH":"2026-03-14T21:47:59.301600","MEAN_MOTION":13.11415072,"ECCENTRICITY":0.00021972,"INCLINATION":87.8877,"RA_OF_ASC_NODE":39.7958,"ARG_OF_PERICENTER":77.0755,"MEAN_ANOMALY":283.0618,"EPHEMERIS_TYPE":0,"CLASSIFICATION_TYPE":"U","NORAD_CAT_ID":50478,"ELEMENT_SET_NO":999,"REV_AT_EPOCH":20325,"BSTAR":0.00021958671,"MEAN_MOTION_DOT":9.1e-7,"MEAN_MOTION_DDOT":0},{"OBJECT_NAME":"ONEWEB-0399","OBJECT_ID":"2021-132L","EPOCH":"2026-03-15T06:37:47.950752","MEAN_MOTION":13.11416448,"ECCENTRICITY":0.00013958,"INCLINATION":87.8879,"RA_OF_ASC_NODE":39.7322,"ARG_OF_PERICENTER":75.1239,"MEAN_ANOMALY":285.0044,"EPHEMERIS_TYPE":0,"CLASSIFICATION_TYPE":"U","NORAD_CAT_ID":50479,"ELEMENT_SET_NO":999,"REV_AT_EPOCH":20329,"BSTAR":0.0015672376,"MEAN_MOTION_DOT":5.68e-6,"MEAN_MOTION_DDOT":0},{"OBJECT_NAME":"ONEWEB-0400","OBJECT_ID":"2021-132M","EPOCH":"2026-03-15T05:24:37.036224","MEAN_MOTION":13.18687401,"ECCENTRICITY":0.00019683,"INCLINATION":87.9253,"RA_OF_ASC_NODE":354.1066,"ARG_OF_PERICENTER":76.93,"MEAN_ANOMALY":283.2051,"EPHEMERIS_TYPE":0,"CLASSIFICATION_TYPE":"U","NORAD_CAT_ID":50480,"ELEMENT_SET_NO":999,"REV_AT_EPOCH":20922,"BSTAR":8.4659871e-5,"MEAN_MOTION_DOT":4.6e-7,"MEAN_MOTION_DDOT":0}]
