ONEWEB-0384             
1 49310U 21090AH  26074.04694389 -.00000011  00000+0 -59519-4 0  9997
2 49310  87.9168 293.2759 0001146  92.4459 267.6805 13.20807970217405
ONEWEB-0385             
1 49311U 21090AJ  26074.04787381  .00000013  00000+0  70449-6 0  9990
2 49311  87.9164 293.2375 0001468  86.6007 273.5294 13.20771215217373
ONEWEB-0386             
1 49312U 21090AK  26074.14098448  .00000062  00000+0  11975-3 0  9991
2 49312  87.9166 293.2037 0001390  88.7745 271.3548 13.20771138217403
ONEWEB-0387             
1 49313U 21090AL  26074.12519499 -.00000017  00000+0 -73069-4 0  9999
2 49313  87.9154 293.2435 0001561  75.9210 284.2097 13.20770380217408
ONEWEB-0388             
1 49314U 21090AM  26074.24337370  .00000089  00000+0  18901-3 0  9999
2 49314  87.9222 323.6921 0001568  80.5751 279.5559 13.19724853214029
ONEWEB-0389             
1 50469U 21132A   26074.26568321  .00000035  00000+0  57684-4 0  9996
2 50469  87.9156  24.5185 0001604  69.3927 290.7376 13.17650641205717
ONEWEB-0390             
1 50470U 21132B   26074.26736152  .00000013  00000+0  44239-6 0  9997
2 50470  87.9160  24.5188 0002095  76.1896 283.9469 13.17648039205718
ONEWEB-0391             
1 50471U 21132C   26074.11718719 -.00000072  00000+0 -21986-3 0  9999
2 50471  87.9159  24.5573 0001814  53.8962 306.2338 13.17650287205698
ONEWEB-0392             
1 50472U 21132D   26074.22349845  .00000007  00000+0 -15565-4 0  9996
2 50472  87.9169  24.4978 0001658  68.6934 291.4375 13.17649387205748
ONEWEB-0393             
1 50473U 21132E   26074.27256492  .00000055  00000+0  10924-3 0  9992
2 50473  87.9169  24.5109 0001781  74.5394 285.5934 13.17648790205741
ONEWEB-0394             
1 50474U 21132F   26074.23862509  .00000026  00000+0  32550-4 0  9999
2 50474  87.9253 354.1022 0001654  75.5349 284.5966 13.18687218209211
ONEWEB-0395             
1 50475U 21132G   26074.16942939 -.00000304  00000+0 -89280-3 0  9990
2 50475  87.8867  39.7629 0001890  75.2658 284.8679 13.11418000203394
ONEWEB-0396             
1 50476U 21132H   26074.23202758  .00000045  00000+0  82653-4 0  9995
2 50476  87.9254 354.1151 0001719  78.4517 281.6808 13.18687006209250
ONEWEB-0397             
1 50477U 21132J   26074.24687377  .00000071  00000+0  14637-3 0  9996
2 50477  87.9255 354.1126 0001580  79.4365 280.6945 13.18687067209238
ONEWEB-0398             
1 50478U 21132K   26073.90832525  .00000091  00000+0  21959-3 0  9993
2 50478  87.8877  39.7958 0002197  77.0755 283.0618 13.11415072203257
ONEWEB-0399             
1 50479U 21132L   26074.27624943  .00000568  00000+0  15672-2 0  9991
2 50479  87.8879  39.7322 0001395  75.1239 285.0044 13.11416448203297
ONEWEB-0400             
1 50480U 21132M   26074.22542866  .00000046  00000+0  84660-4 0  9997
2 50480  87.9253 354.1066 0001968  76.9300 283.2051 13.18687401209222
